CSS (TIANHE)            
1 48274U 21035A   24001.54380036  .00033788  00000+0  34104-3 0  9995
2 48274  41.4715  27.2923 0006440 119.7363 240.4119 15.64619614152853
